CCSDS_OMM_VERS = 2.0
CREATION_DATE  = 
ORIGINATOR     = 

OBJECT_NAME    = ATLAS CENTAUR R/B
OBJECT_ID      = 1972-065B
CENTER_NAME    = EARTH
REF_FRAME      = TEME
TIME_SYSTEM    = UTC
MEAN_ELEMENT_THEORY = SGP/SGP4

EPOCH          = 2025-11-26T17:03:18.406944
MEAN_MOTION    = 14.77346653
ECCENTRICITY   = .00343594
INCLINATION    = 35.0002
RA_OF_ASC_NODE = 189.0901
ARG_OF_PERICENTER = 225.0804
MEAN_ANOMALY   = 134.7106

EPHEMERIS_TYPE = 0
CLASSIFICATION_TYPE = U
NORAD_CAT_ID   = 6155
ELEMENT_SET_NO = 999
REV_AT_EPOCH   = 82602
BSTAR          = .19440751E-3
MEAN_MOTION_DOT = .1395E-4
MEAN_MOTION_DDOT = 0

CCSDS_OMM_VERS = 2.0
CREATION_DATE  = 
ORIGINATOR     = 

OBJECT_NAME    = SL-8 R/B
OBJECT_ID      = 1975-112B
CENTER_NAME    = EARTH
REF_FRAME      = TEME
TIME_SYSTEM    = UTC
MEAN_ELEMENT_THEORY = SGP/SGP4

EPOCH          = 2025-11-27T02:37:37.603200
MEAN_MOTION    = 14.38130427
ECCENTRICITY   = .0016225
INCLINATION    = 74.0601
RA_OF_ASC_NODE = 207.6068
ARG_OF_PERICENTER = 320.9305
MEAN_ANOMALY   = 39.0676

EPHEMERIS_TYPE = 0
CLASSIFICATION_TYPE = U
NORAD_CAT_ID   = 8459
ELEMENT_SET_NO = 999
REV_AT_EPOCH   = 61712
BSTAR          = .10822E-3
MEAN_MOTION_DOT = .302E-5
MEAN_MOTION_DDOT = 0

CCSDS_OMM_VERS = 2.0
CREATION_DATE  = 
ORIGINATOR     = 

OBJECT_NAME    = SL-3 R/B
OBJECT_ID      = 1977-057B
CENTER_NAME    = EARTH
REF_FRAME      = TEME
TIME_SYSTEM    = UTC
MEAN_ELEMENT_THEORY = SGP/SGP4

EPOCH          = 2025-11-27T02:58:02.113248
MEAN_MOTION    = 15.42419917
ECCENTRICITY   = .0006605
INCLINATION    = 97.5687
RA_OF_ASC_NODE = 133.8503
ARG_OF_PERICENTER = 298.7114
MEAN_ANOMALY   = 61.3469

EPHEMERIS_TYPE = 0
CLASSIFICATION_TYPE = U
NORAD_CAT_ID   = 10114
ELEMENT_SET_NO = 999
REV_AT_EPOCH   = 65250
BSTAR          = .31713E-3
MEAN_MOTION_DOT = .13634E-3
MEAN_MOTION_DDOT = 0

CCSDS_OMM_VERS = 2.0
CREATION_DATE  = 
ORIGINATOR     = 

OBJECT_NAME    = SEASAT 1
OBJECT_ID      = 1978-064A
CENTER_NAME    = EARTH
REF_FRAME      = TEME
TIME_SYSTEM    = UTC
MEAN_ELEMENT_THEORY = SGP/SGP4

EPOCH          = 2025-11-26T18:30:52.102368
MEAN_MOTION    = 14.46033974
ECCENTRICITY   = .00020245
INCLINATION    = 108.0090
RA_OF_ASC_NODE = 269.5358
ARG_OF_PERICENTER = 251.3416
MEAN_ANOMALY   = 108.7510

EPHEMERIS_TYPE = 0
CLASSIFICATION_TYPE = U
NORAD_CAT_ID   = 10967
ELEMENT_SET_NO = 999
REV_AT_EPOCH   = 49163
BSTAR          = .18340476E-3
MEAN_MOTION_DOT = .517E-5
MEAN_MOTION_DDOT = 0

CCSDS_OMM_VERS = 2.0
CREATION_DATE  = 
ORIGINATOR     = 

OBJECT_NAME    = SL-14 R/B
OBJECT_ID      = 1979-011B
CENTER_NAME    = EARTH
REF_FRAME      = TEME
TIME_SYSTEM    = UTC
MEAN_ELEMENT_THEORY = SGP/SGP4

EPOCH          = 2025-11-26T22:59:25.303200
MEAN_MOTION    = 14.91742081
ECCENTRICITY   = .0017219
INCLINATION    = 82.5248
RA_OF_ASC_NODE = 194.0105
ARG_OF_PERICENTER = 44.5442
MEAN_ANOMALY   = 315.7158

EPHEMERIS_TYPE = 0
CLASSIFICATION_TYPE = U
NORAD_CAT_ID   = 11267
ELEMENT_SET_NO = 999
REV_AT_EPOCH   = 51346
BSTAR          = .67018E-4
MEAN_MOTION_DOT = .702E-5
MEAN_MOTION_DDOT = 0

CCSDS_OMM_VERS = 2.0
CREATION_DATE  = 
ORIGINATOR     = 

OBJECT_NAME    = SL-8 R/B
OBJECT_ID      = 1979-089B
CENTER_NAME    = EARTH
REF_FRAME      = TEME
TIME_SYSTEM    = UTC
MEAN_ELEMENT_THEORY = SGP/SGP4

EPOCH          = 2025-11-26T22:51:05.746176
MEAN_MOTION    = 14.42266961
ECCENTRICITY   = .0014585
INCLINATION    = 74.0686
RA_OF_ASC_NODE = 281.1981
ARG_OF_PERICENTER = 122.2566
MEAN_ANOMALY   = 238.0006

EPHEMERIS_TYPE = 0
CLASSIFICATION_TYPE = U
NORAD_CAT_ID   = 11574
ELEMENT_SET_NO = 999
REV_AT_EPOCH   = 42129
BSTAR          = .11982E-3
MEAN_MOTION_DOT = .369E-5
MEAN_MOTION_DDOT = 0

CCSDS_OMM_VERS = 2.0
CREATION_DATE  = 
ORIGINATOR     = 

OBJECT_NAME    = SL-14 R/B
OBJECT_ID      = 1980-005B
CENTER_NAME    = EARTH
REF_FRAME      = TEME
TIME_SYSTEM    = UTC
MEAN_ELEMENT_THEORY = SGP/SGP4

EPOCH          = 2025-11-27T04:07:41.744352
MEAN_MOTION    = 14.90762883
ECCENTRICITY   = .001675
INCLINATION    = 82.5161
RA_OF_ASC_NODE = 44.4618
ARG_OF_PERICENTER = 141.3352
MEAN_ANOMALY   = 218.9070

EPHEMERIS_TYPE = 0
CLASSIFICATION_TYPE = U
NORAD_CAT_ID   = 11672
ELEMENT_SET_NO = 999
REV_AT_EPOCH   = 46121
BSTAR          = .76139E-4
MEAN_MOTION_DOT = .775E-5
MEAN_MOTION_DDOT = 0

CCSDS_OMM_VERS = 2.0
CREATION_DATE  = 
ORIGINATOR     = 

OBJECT_NAME    = SL-8 R/B
OBJECT_ID      = 1981-003B
CENTER_NAME    = EARTH
REF_FRAME      = TEME
TIME_SYSTEM    = UTC
MEAN_ELEMENT_THEORY = SGP/SGP4

EPOCH          = 2025-11-27T04:42:54.653760
MEAN_MOTION    = 15.06296304
ECCENTRICITY   = .0281662
INCLINATION    = 82.9305
RA_OF_ASC_NODE = 24.5024
ARG_OF_PERICENTER = 173.9723
MEAN_ANOMALY   = 186.5022

EPHEMERIS_TYPE = 0
CLASSIFICATION_TYPE = U
NORAD_CAT_ID   = 12139
ELEMENT_SET_NO = 999
REV_AT_EPOCH   = 29922
BSTAR          = .62446E-3
MEAN_MOTION_DOT = .23218E-3
MEAN_MOTION_DDOT = 0

CCSDS_OMM_VERS = 2.0
CREATION_DATE  = 
ORIGINATOR     = 

OBJECT_NAME    = SL-3 R/B
OBJECT_ID      = 1981-046B
CENTER_NAME    = EARTH
REF_FRAME      = TEME
TIME_SYSTEM    = UTC
MEAN_ELEMENT_THEORY = SGP/SGP4

EPOCH          = 2025-11-27T03:48:42.853248
MEAN_MOTION    = 15.39143947
ECCENTRICITY   = .0019979
INCLINATION    = 81.2336
RA_OF_ASC_NODE = 52.5682
ARG_OF_PERICENTER = 18.5492
MEAN_ANOMALY   = 341.6473

EPHEMERIS_TYPE = 0
CLASSIFICATION_TYPE = U
NORAD_CAT_ID   = 12465
ELEMENT_SET_NO = 999
REV_AT_EPOCH   = 42264
BSTAR          = .3216E-3
MEAN_MOTION_DOT = .12595E-3
MEAN_MOTION_DDOT = 0

CCSDS_OMM_VERS = 2.0
CREATION_DATE  = 
ORIGINATOR     = 

OBJECT_NAME    = SL-3 R/B
OBJECT_ID      = 1981-103B
CENTER_NAME    = EARTH
REF_FRAME      = TEME
TIME_SYSTEM    = UTC
MEAN_ELEMENT_THEORY = SGP/SGP4

EPOCH          = 2025-11-27T03:00:03.793824
MEAN_MOTION    = 15.19952785
ECCENTRICITY   = .0011398
INCLINATION    = 81.1593
RA_OF_ASC_NODE = 333.6392
ARG_OF_PERICENTER = 274.6317
MEAN_ANOMALY   = 85.3612

EPHEMERIS_TYPE = 0
CLASSIFICATION_TYPE = U
NORAD_CAT_ID   = 12904
ELEMENT_SET_NO = 999
REV_AT_EPOCH   = 95764
BSTAR          = .32627E-3
MEAN_MOTION_DOT = .7053E-4
MEAN_MOTION_DDOT = 0

CCSDS_OMM_VERS = 2.0
CREATION_DATE  = 
ORIGINATOR     = 

OBJECT_NAME    = SL-3 R/B
OBJECT_ID      = 1982-013B
CENTER_NAME    = EARTH
REF_FRAME      = TEME
TIME_SYSTEM    = UTC
MEAN_ELEMENT_THEORY = SGP/SGP4

EPOCH          = 2025-11-27T02:49:08.387616
MEAN_MOTION    = 15.20875800
ECCENTRICITY   = .0023132
INCLINATION    = 81.1744
RA_OF_ASC_NODE = 280.8926
ARG_OF_PERICENTER = 161.4841
MEAN_ANOMALY   = 198.7238

EPHEMERIS_TYPE = 0
CLASSIFICATION_TYPE = U
NORAD_CAT_ID   = 13068
ELEMENT_SET_NO = 999
REV_AT_EPOCH   = 38875
BSTAR          = .22267E-3
MEAN_MOTION_DOT = .4979E-4
MEAN_MOTION_DDOT = 0

CCSDS_OMM_VERS = 2.0
CREATION_DATE  = 
ORIGINATOR     = 

OBJECT_NAME    = SL-3 R/B
OBJECT_ID      = 1982-039B
CENTER_NAME    = EARTH
REF_FRAME      = TEME
TIME_SYSTEM    = UTC
MEAN_ELEMENT_THEORY = SGP/SGP4

EPOCH          = 2025-11-27T03:03:39.631392
MEAN_MOTION    = 15.09387611
ECCENTRICITY   = .0030924
INCLINATION    = 81.1752
RA_OF_ASC_NODE = 334.0541
ARG_OF_PERICENTER = 304.7109
MEAN_ANOMALY   = 55.1204

EPHEMERIS_TYPE = 0
CLASSIFICATION_TYPE = U
NORAD_CAT_ID   = 13154
ELEMENT_SET_NO = 999
REV_AT_EPOCH   = 36616
BSTAR          = .20566E-3
MEAN_MOTION_DOT = .3344E-4
MEAN_MOTION_DDOT = 0

