ATLAS CENTAUR R/B       
1 06155U 72065B   25330.71062971  .00001395  00000+0  19441-3 0  9992
2 06155  35.0002 189.0901 0034359 225.0804 134.7106 14.77346653826028
SL-8 R/B                
1 08459U 75112B   25331.10946300  .00000302  00000+0  10822-3 0  9999
2 08459  74.0601 207.6068 0016225 320.9305  39.0676 14.38130427617124
SL-3 R/B                
1 10114U 77057B   25331.12363557  .00013634  00000+0  31713-3 0  9993
2 10114  97.5687 133.8503 0006605 298.7114  61.3469 15.42419917652503
SEASAT 1                
1 10967U 78064A   25330.77143637  .00000517  00000+0  18340-3 0  9990
2 10967 108.0090 269.5358 0002024 251.3416 108.7510 14.46033974491637
SL-14 R/B               
1 11267U 79011B   25330.95793175  .00000702  00000+0  67018-4 0  9998
2 11267  82.5248 194.0105 0017219  44.5442 315.7158 14.91742081513467
SL-8 R/B                
1 11574U 79089B   25330.95214984  .00000369  00000+0  11982-3 0  9997
2 11574  74.0686 281.1981 0014585 122.2566 238.0006 14.42266961421296
SL-14 R/B               
1 11672U 80005B   25331.17201093  .00000775  00000+0  76139-4 0  9995
2 11672  82.5161  44.4618 0016750 141.3352 218.9070 14.90762883461216
SL-8 R/B                
1 12139U 81003B   25331.19646590  .00023218  00000+0  62446-3 0  9992
2 12139  82.9305  24.5024 0281662 173.9723 186.5022 15.06296304299223
SL-3 R/B                
1 12465U 81046B   25331.15882932  .00012595  00000+0  32160-3 0  9995
2 12465  81.2336  52.5682 0019979  18.5492 341.6473 15.39143947422647
SL-3 R/B                
1 12904U 81103B   25331.12504391  .00007053  00000+0  32627-3 0  9995
2 12904  81.1593 333.6392 0011398 274.6317  85.3612 15.19952785957644
SL-3 R/B                
1 13068U 82013B   25331.11745819  .00004979  00000+0  22267-3 0  9992
2 13068  81.1744 280.8926 0023132 161.4841 198.7238 15.20875800388751
SL-3 R/B                
1 13154U 82039B   25331.12754203  .00003344  00000+0  20566-3 0  9999
2 13154  81.1752 334.0541 0030924 304.7109  55.1204 15.09387611366162
